{
  "type": "FeatureCollection",
  "features": [
    {
      "type": "Feature",
      "properties": {
        "OBJECT_NAME": "FENGYUN 2G",
        "OBJECT_ID": "2014-090A",
        "EPOCH": "2025-11-29T19:33:09.154656",
        "MEAN_MOTION": 1.00269319,
        "ECCENTRICITY": 0.000288,
        "INCLINATION": 5.1325,
        "RA_OF_ASC_NODE": 75.2478,
        "ARG_OF_PERICENTER": 192.4839,
        "MEAN_ANOMALY": 194.2729,
        "EPHEMERIS_TYPE": 0,
        "CLASSIFICATION_TYPE": "U",
        "NORAD_CAT_ID": 40367,
        "ELEMENT_SET_NO": 999,
        "REV_AT_EPOCH": 4000,
        "BSTAR": 0,
        "MEAN_MOTION_DOT": -2.81e-06,
        "MEAN_MOTION_DDOT": 0,
        "norad_id": 40367,
        "name": "FENGYUN 2G",
        "group": "weather",
        "longitude_deg": NaN,
        "latitude_deg": NaN,
        "alt_km": NaN,
        "orbit_class": "HEO",
        "timestamp": "2025-11-30T07:29:52.810330+00:00"
      },
      "geometry": {
        "type": "Point",
        "coordinates": [
          NaN,
          NaN
        ]
      }
    },
    {
      "type": "Feature",
      "properties": {
        "OBJECT_NAME": "METEOSAT-11 (MSG-4)",
        "OBJECT_ID": "2015-034A",
        "EPOCH": "2025-11-29T19:03:17.214336",
        "MEAN_MOTION": 1.0027666,
        "ECCENTRICITY": 3.05e-05,
        "INCLINATION": 2.7032,
        "RA_OF_ASC_NODE": 72.0324,
        "ARG_OF_PERICENTER": 155.1896,
        "MEAN_ANOMALY": 136.9349,
        "EPHEMERIS_TYPE": 0,
        "CLASSIFICATION_TYPE": "U",
        "NORAD_CAT_ID": 40732,
        "ELEMENT_SET_NO": 999,
        "REV_AT_EPOCH": 521,
        "BSTAR": 0,
        "MEAN_MOTION_DOT": 8.5e-07,
        "MEAN_MOTION_DDOT": 0,
        "norad_id": 40732,
        "name": "METEOSAT-11 (MSG-4)",
        "group": "weather",
        "longitude_deg": NaN,
        "latitude_deg": NaN,
        "alt_km": NaN,
        "orbit_class": "HEO",
        "timestamp": "2025-11-30T07:29:52.810539+00:00"
      },
      "geometry": {
        "type": "Point",
        "coordinates": [
          NaN,
          NaN
        ]
      }
    },
    {
      "type": "Feature",
      "properties": {
        "OBJECT_NAME": "ELEKTRO-L 2",
        "OBJECT_ID": "2015-074A",
        "EPOCH": "2025-11-29T02:13:38.661312",
        "MEAN_MOTION": 1.00270368,
        "ECCENTRICITY": 0.00037187,
        "INCLINATION": 6.1883,
        "RA_OF_ASC_NODE": 72.9891,
        "ARG_OF_PERICENTER": 195.9384,
        "MEAN_ANOMALY": 178.2324,
        "EPHEMERIS_TYPE": 0,
        "CLASSIFICATION_TYPE": "U",
        "NORAD_CAT_ID": 41105,
        "ELEMENT_SET_NO": 999,
        "REV_AT_EPOCH": 3650,
        "BSTAR": 0,
        "MEAN_MOTION_DOT": -9.6e-07,
        "MEAN_MOTION_DDOT": 0,
        "norad_id": 41105,
        "name": "ELEKTRO-L 2",
        "group": "weather",
        "longitude_deg": NaN,
        "latitude_deg": NaN,
        "alt_km": NaN,
        "orbit_class": "HEO",
        "timestamp": "2025-11-30T07:29:52.810879+00:00"
      },
      "geometry": {
        "type": "Point",
        "coordinates": [
          NaN,
          NaN
        ]
      }
    },
    {
      "type": "Feature",
      "properties": {
        "OBJECT_NAME": "INSAT-3DR",
        "OBJECT_ID": "2016-054A",
        "EPOCH": "2025-11-29T19:21:37.956384",
        "MEAN_MOTION": 1.00270464,
        "ECCENTRICITY": 0.0014224,
        "INCLINATION": 0.0572,
        "RA_OF_ASC_NODE": 91.0116,
        "ARG_OF_PERICENTER": 177.4224,
        "MEAN_ANOMALY": 164.9793,
        "EPHEMERIS_TYPE": 0,
        "CLASSIFICATION_TYPE": "U",
        "NORAD_CAT_ID": 41752,
        "ELEMENT_SET_NO": 999,
        "REV_AT_EPOCH": 3381,
        "BSTAR": 0,
        "MEAN_MOTION_DOT": -5.6e-07,
        "MEAN_MOTION_DDOT": 0,
        "norad_id": 41752,
        "name": "INSAT-3DR",
        "group": "weather",
        "longitude_deg": NaN,
        "latitude_deg": NaN,
        "alt_km": NaN,
        "orbit_class": "HEO",
        "timestamp": "2025-11-30T07:29:52.811274+00:00"
      },
      "geometry": {
        "type": "Point",
        "coordinates": [
          NaN,
          NaN
        ]
      }
    },
    {
      "type": "Feature",
      "properties": {
        "OBJECT_NAME": "HIMAWARI-9",
        "OBJECT_ID": "2016-064A",
        "EPOCH": "2025-11-29T19:47:38.387904",
        "MEAN_MOTION": 1.00271922,
        "ECCENTRICITY": 0.0001414,
        "INCLINATION": 0.0538,
        "RA_OF_ASC_NODE": 98.8525,
        "ARG_OF_PERICENTER": 150.8711,
        "MEAN_ANOMALY": 256.932,
        "EPHEMERIS_TYPE": 0,
        "CLASSIFICATION_TYPE": "U",
        "NORAD_CAT_ID": 41836,
        "ELEMENT_SET_NO": 999,
        "REV_AT_EPOCH": 3321,
        "BSTAR": 0,
        "MEAN_MOTION_DOT": -2.53e-06,
        "MEAN_MOTION_DDOT": 0,
        "norad_id": 41836,
        "name": "HIMAWARI-9",
        "group": "weather",
        "longitude_deg": NaN,
        "latitude_deg": NaN,
        "alt_km": NaN,
        "orbit_class": "HEO",
        "timestamp": "2025-11-30T07:29:52.811373+00:00"
      },
      "geometry": {
        "type": "Point",
        "coordinates": [
          NaN,
          NaN
        ]
      }
    },
    {
      "type": "Feature",
      "properties": {
        "OBJECT_NAME": "GOES 16",
        "OBJECT_ID": "2016-071A",
        "EPOCH": "2025-11-29T15:05:14.589312",
        "MEAN_MOTION": 1.00270932,
        "ECCENTRICITY": 0.0003198,
        "INCLINATION": 0.0566,
        "RA_OF_ASC_NODE": 103.4734,
        "ARG_OF_PERICENTER": 150.6616,
        "MEAN_ANOMALY": 296.2898,
        "EPHEMERIS_TYPE": 0,
        "CLASSIFICATION_TYPE": "U",
        "NORAD_CAT_ID": 41866,
        "ELEMENT_SET_NO": 999,
        "REV_AT_EPOCH": 3310,
        "BSTAR": 0,
        "MEAN_MOTION_DOT": -7e-07,
        "MEAN_MOTION_DDOT": 0,
        "norad_id": 41866,
        "name": "GOES 16",
        "group": "weather",
        "longitude_deg": NaN,
        "latitude_deg": NaN,
        "alt_km": NaN,
        "orbit_class": "HEO",
        "timestamp": "2025-11-30T07:29:52.811469+00:00"
      },
      "geometry": {
        "type": "Point",
        "coordinates": [
          NaN,
          NaN
        ]
      }
    },
    {
      "type": "Feature",
      "properties": {
        "OBJECT_NAME": "FENGYUN 4A",
        "OBJECT_ID": "2016-077A",
        "EPOCH": "2025-11-28T14:29:25.325376",
        "MEAN_MOTION": 1.00262544,
        "ECCENTRICITY": 0.0004895,
        "INCLINATION": 1.8103,
        "RA_OF_ASC_NODE": 82.5211,
        "ARG_OF_PERICENTER": 153.8506,
        "MEAN_ANOMALY": 172.3173,
        "EPHEMERIS_TYPE": 0,
        "CLASSIFICATION_TYPE": "U",
        "NORAD_CAT_ID": 41882,
        "ELEMENT_SET_NO": 999,
        "REV_AT_EPOCH": 3291,
        "BSTAR": 0,
        "MEAN_MOTION_DOT": -3.37e-06,
        "MEAN_MOTION_DDOT": 0,
        "norad_id": 41882,
        "name": "FENGYUN 4A",
        "group": "weather",
        "longitude_deg": NaN,
        "latitude_deg": NaN,
        "alt_km": NaN,
        "orbit_class": "HEO",
        "timestamp": "2025-11-30T07:29:52.811501+00:00"
      },
      "geometry": {
        "type": "Point",
        "coordinates": [
          NaN,
          NaN
        ]
      }
    },
    {
      "type": "Feature",
      "properties": {
        "OBJECT_NAME": "CYGFM05",
        "OBJECT_ID": "2016-078A",
        "EPOCH": "2025-11-29T20:02:38.633568",
        "MEAN_MOTION": 15.4693011,
        "ECCENTRICITY": 0.0009529,
        "INCLINATION": 34.9574,
        "RA_OF_ASC_NODE": 131.3824,
        "ARG_OF_PERICENTER": 57.8909,
        "MEAN_ANOMALY": 302.2737,
        "EPHEMERIS_TYPE": 0,
        "CLASSIFICATION_TYPE": "U",
        "NORAD_CAT_ID": 41884,
        "ELEMENT_SET_NO": 999,
        "REV_AT_EPOCH": 49776,
        "BSTAR": 0.00037016,
        "MEAN_MOTION_DOT": 0.00019244,
        "MEAN_MOTION_DDOT": 0,
        "norad_id": 41884,
        "name": "CYGFM05",
        "group": "weather",
        "longitude_deg": NaN,
        "latitude_deg": NaN,
        "alt_km": NaN,
        "orbit_class": "HEO",
        "timestamp": "2025-11-30T07:29:52.811508+00:00"
      },
      "geometry": {
        "type": "Point",
        "coordinates": [
          NaN,
          NaN
        ]
      }
    }
  ]
}