FENGYUN 2G              
1 40367U 14090A   25333.81468929 -.00000281  00000+0  00000+0 0  9997
2 40367   5.1325  75.2478 0002880 192.4839 194.2729  1.00269319 40004
METEOSAT-11 (MSG-4)     
1 40732U 15034A   25333.79394924  .00000085  00000+0  00000+0 0  9993
2 40732   2.7032  72.0324 0000305 155.1896 136.9349  1.00276660  5214
ELEKTRO-L 2             
1 41105U 15074A   25333.09280858 -.00000096  00000+0  00000+0 0  9998
2 41105   6.1883  72.9891 0003718 195.9384 178.2324  1.00270368 36501
INSAT-3DR               
1 41752U 16054A   25333.80668931 -.00000056  00000+0  00000+0 0  9992
2 41752   0.0572  91.0116 0014224 177.4224 164.9793  1.00270464 33811
HIMAWARI-9              
1 41836U 16064A   25333.82474986 -.00000253  00000+0  00000+0 0  9992
2 41836   0.0538  98.8525 0001414 150.8711 256.9320  1.00271922 33210
GOES 16                 
1 41866U 16071A   25333.62864108 -.00000070  00000+0  00000+0 0  9997
2 41866   0.0566 103.4734 0003198 150.6616 296.2898  1.00270932 33107
FENGYUN 4A              
1 41882U 16077A   25332.60376534 -.00000337  00000+0  00000+0 0  9995
2 41882   1.8103  82.5211 0004895 153.8506 172.3173  1.00262544 32914
CYGFM05                 
1 41884U 16078A   25333.83516937  .00019244  00000+0  37016-3 0  9994
2 41884  34.9574 131.3824 0009529  57.8909 302.2737 15.46930110497761
